[Satellite]
VERSION=1.1
NAME=CZ-4B R/B
NICKNAME=CZ-4B R/B
TLE1=1 28059U 03049C   15054.85752914  .00000258  00000-0  74983-4 0  9996
TLE2=2 28059  98.6753 267.1836 0049227 298.5939 182.8409 14.52290576601118
